{
  "type": "FeatureCollection",
  "features": [
    {
      "type": "Feature",
      "properties": {
        "norad_id": 33655,
        "name": "FENGYUN 1C DEB",
        "group": "fengyun-1c-debris",
        "lat": -11.051548227726297,
        "lon": -113.49132793068752,
        "alt_km": 592.5709924756893,
        "timestamp": "2025-12-27T03:58:44.437539+00:00",
        "meta_object_name": "FENGYUN 1C DEB",
        "meta_object_id": "1999-025DEQ",
        "meta_epoch": "2025-12-25T15:51:47.177280",
        "meta_mean_motion": 14.98228574,
        "meta_eccentricity": 0.00462851,
        "meta_inclination": 98.7992,
        "meta_ra_of_asc_node": 66.5471,
        "meta_arg_of_pericenter": 316.1929,
        "meta_mean_anomaly": 43.5622,
        "meta_ephemeris_type": 0,
        "meta_classification_type": "U",
        "meta_norad_cat_id": 33655,
        "meta_element_set_no": 999,
        "meta_rev_at_epoch": 96751,
        "meta_bstar": 0.001860165,
        "meta_mean_motion_dot": 0.00022573,
        "meta_mean_motion_ddot": 0,
        "tle_line1": "1 33655U 99025DEQ 25359.66096270  .00022573  00000+0  18602-2 0  9994",
        "tle_line2": "2 33655  98.7992  66.5471 0046285 316.1929  43.5622 14.98228574967513"
      },
      "geometry": {
        "type": "Point",
        "coordinates": [
          -113.49132793068752,
          -11.051548227726297
        ]
      }
    },
    {
      "type": "Feature",
      "properties": {
        "norad_id": 33656,
        "name": "FENGYUN 1C DEB",
        "group": "fengyun-1c-debris",
        "lat": 6.386448875458172,
        "lon": -7.115049172928477,
        "alt_km": 756.1654183342071,
        "timestamp": "2025-12-27T03:58:44.437548+00:00",
        "meta_object_name": "FENGYUN 1C DEB",
        "meta_object_id": "1999-025DER",
        "meta_epoch": "2025-12-26T04:19:12.110592",
        "meta_mean_motion": 14.22759171,
        "meta_eccentricity": 0.00898968,
        "meta_inclination": 98.5793,
        "meta_ra_of_asc_node": 352.893,
        "meta_arg_of_pericenter": 352.4674,
        "meta_mean_anomaly": 7.5149,
        "meta_ephemeris_type": 0,
        "meta_classification_type": "U",
        "meta_norad_cat_id": 33656,
        "meta_element_set_no": 999,
        "meta_rev_at_epoch": 62900,
        "meta_bstar": 0.00044155087,
        "meta_mean_motion_dot": 9.89e-06,
        "meta_mean_motion_ddot": 0,
        "tle_line1": "1 33656U 99025DER 25360.18000128  .00000989  00000+0  44155-3 0  9991",
        "tle_line2": "2 33656  98.5793 352.8930 0089896 352.4674   7.5149 14.22759171629009"
      },
      "geometry": {
        "type": "Point",
        "coordinates": [
          -7.115049172928477,
          6.386448875458172
        ]
      }
    },
    {
      "type": "Feature",
      "properties": {
        "norad_id": 33658,
        "name": "FENGYUN 1C DEB",
        "group": "fengyun-1c-debris",
        "lat": -9.829073915858718,
        "lon": -27.565485544367245,
        "alt_km": 880.8129211995429,
        "timestamp": "2025-12-27T03:58:44.437557+00:00",
        "meta_object_name": "FENGYUN 1C DEB",
        "meta_object_id": "1999-025DET",
        "meta_epoch": "2025-12-26T16:29:43.522656",
        "meta_mean_motion": 13.62440528,
        "meta_eccentricity": 0.0281743,
        "meta_inclination": 99.5636,
        "meta_ra_of_asc_node": 153.6384,
        "meta_arg_of_pericenter": 145.9045,
        "meta_mean_anomaly": 216.0554,
        "meta_ephemeris_type": 0,
        "meta_classification_type": "U",
        "meta_norad_cat_id": 33658,
        "meta_element_set_no": 999,
        "meta_rev_at_epoch": 58329,
        "meta_bstar": 0.0027534,
        "meta_mean_motion_dot": 2.747e-05,
        "meta_mean_motion_ddot": 0,
        "tle_line1": "1 33658U 99025DET 25360.68730929  .00002747  00000+0  27534-2 0  9992",
        "tle_line2": "2 33658  99.5636 153.6384 0281743 145.9045 216.0554 13.62440528583293"
      },
      "geometry": {
        "type": "Point",
        "coordinates": [
          -27.565485544367245,
          -9.829073915858718
        ]
      }
    },
    {
      "type": "Feature",
      "properties": {
        "norad_id": 33660,
        "name": "FENGYUN 1C DEB",
        "group": "fengyun-1c-debris",
        "lat": -41.94024729314496,
        "lon": 83.53150889884016,
        "alt_km": 851.8439854518074,
        "timestamp": "2025-12-27T03:58:44.437568+00:00",
        "meta_object_name": "FENGYUN 1C DEB",
        "meta_object_id": "1999-025DEV",
        "meta_epoch": "2025-12-25T00:57:30.028896",
        "meta_mean_motion": 13.91785167,
        "meta_eccentricity": 0.01098948,
        "meta_inclination": 98.6573,
        "meta_ra_of_asc_node": 269.4147,
        "meta_arg_of_pericenter": 211.9347,
        "meta_mean_anomaly": 164.5297,
        "meta_ephemeris_type": 0,
        "meta_classification_type": "U",
        "meta_norad_cat_id": 33660,
        "meta_element_set_no": 999,
        "meta_rev_at_epoch": 91235,
        "meta_bstar": 0.00050571294,
        "meta_mean_motion_dot": 6.35e-06,
        "meta_mean_motion_ddot": 0,
        "tle_line1": "1 33660U 99025DEV 25359.03993089  .00000635  00000+0  50571-3 0  9992",
        "tle_line2": "2 33660  98.6573 269.4147 0109894 211.9347 164.5297 13.91785167912351"
      },
      "geometry": {
        "type": "Point",
        "coordinates": [
          83.53150889884016,
          -41.94024729314496
        ]
      }
    },
    {
      "type": "Feature",
      "properties": {
        "norad_id": 33663,
        "name": "FENGYUN 1C DEB",
        "group": "fengyun-1c-debris",
        "lat": 5.9993223931635,
        "lon": -7.497041700078312,
        "alt_km": 640.7217419685239,
        "timestamp": "2025-12-27T03:58:44.437577+00:00",
        "meta_object_name": "FENGYUN 1C DEB",
        "meta_object_id": "1999-025DEY",
        "meta_epoch": "2025-12-19T16:59:12.916032",
        "meta_mean_motion": 14.62420934,
        "meta_eccentricity": 0.0080658,
        "meta_inclination": 98.8853,
        "meta_ra_of_asc_node": 345.4244,
        "meta_arg_of_pericenter": 352.5038,
        "meta_mean_anomaly": 7.4949,
        "meta_ephemeris_type": 0,
        "meta_classification_type": "U",
        "meta_norad_cat_id": 33663,
        "meta_element_set_no": 999,
        "meta_rev_at_epoch": 64304,
        "meta_bstar": 0.0040155279,
        "meta_mean_motion_dot": 0.00021295,
        "meta_mean_motion_ddot": 0,
        "tle_line1": "1 33663U 99025DEY 25353.70778838  .00021295  00000+0  40155-2 0  9997",
        "tle_line2": "2 33663  98.8853 345.4244 0080658 352.5038   7.4949 14.62420934643048"
      },
      "geometry": {
        "type": "Point",
        "coordinates": [
          -7.497041700078312,
          5.9993223931635
        ]
      }
    },
    {
      "type": "Feature",
      "properties": {
        "norad_id": 33664,
        "name": "FENGYUN 1C DEB",
        "group": "fengyun-1c-debris",
        "lat": 75.07463280024601,
        "lon": 4.38217756744792,
        "alt_km": 896.6744795933973,
        "timestamp": "2025-12-27T03:58:44.437586+00:00",
        "meta_object_name": "FENGYUN 1C DEB",
        "meta_object_id": "1999-025DEZ",
        "meta_epoch": "2025-12-26T15:31:50.526912",
        "meta_mean_motion": 14.04003719,
        "meta_eccentricity": 0.0163451,
        "meta_inclination": 98.7023,
        "meta_ra_of_asc_node": 148.8144,
        "meta_arg_of_pericenter": 1.078,
        "meta_mean_anomaly": 359.0709,
        "meta_ephemeris_type": 0,
        "meta_classification_type": "U",
        "meta_norad_cat_id": 33664,
        "meta_element_set_no": 999,
        "meta_rev_at_epoch": 90934,
        "meta_bstar": 0.0002772,
        "meta_mean_motion_dot": 4.51e-06,
        "meta_mean_motion_ddot": 0,
        "tle_line1": "1 33664U 99025DEZ 25360.64711258  .00000451  00000+0  27720-3 0  9997",
        "tle_line2": "2 33664  98.7023 148.8144 0163451   1.0780 359.0709 14.04003719909346"
      },
      "geometry": {
        "type": "Point",
        "coordinates": [
          4.38217756744792,
          75.07463280024601
        ]
      }
    },
    {
      "type": "Feature",
      "properties": {
        "norad_id": 33665,
        "name": "FENGYUN 1C DEB",
        "group": "fengyun-1c-debris",
        "lat": -18.895802442193204,
        "lon": -64.49129656528255,
        "alt_km": 1158.5672618180079,
        "timestamp": "2025-12-27T03:58:44.437595+00:00",
        "meta_object_name": "FENGYUN 1C DEB",
        "meta_object_id": "1999-025DFA",
        "meta_epoch": "2025-12-23T13:31:59.080800",
        "meta_mean_motion": 14.03682901,
        "meta_eccentricity": 0.04552643,
        "meta_inclination": 99.0215,
        "meta_ra_of_asc_node": 115.0384,
        "meta_arg_of_pericenter": 62.0717,
        "meta_mean_anomaly": 302.5771,
        "meta_ephemeris_type": 0,
        "meta_classification_type": "U",
        "meta_norad_cat_id": 33665,
        "meta_element_set_no": 999,
        "meta_rev_at_epoch": 92743,
        "meta_bstar": 0.00054568247,
        "meta_mean_motion_dot": 2.127e-05,
        "meta_mean_motion_ddot": 0,
        "tle_line1": "1 33665U 99025DFA 25357.56387825  .00002127  00000+0  54568-3 0  9996",
        "tle_line2": "2 33665  99.0215 115.0384 0455264  62.0717 302.5771 14.03682901927436"
      },
      "geometry": {
        "type": "Point",
        "coordinates": [
          -64.49129656528255,
          -18.895802442193204
        ]
      }
    }
  ]
}